[{"OBJECT_NAME":"XINGYUN-2 01","OBJECT_ID":"2020-028A","EPOCH":"2026-04-04T22:19:50.373696","MEAN_MOTION":15.11488818,"ECCENTRICITY":0.00108449,"INCLINATION":97.4855,"RA_OF_ASC_NODE":88.8089,"ARG_OF_PERICENTER":95.133,"MEAN_ANOMALY":265.1138,"EPHEMERIS_TYPE":0,"CLASSIFICATION_TYPE":"U","NORAD_CAT_ID":45602,"ELEMENT_SET_NO":999,"REV_AT_EPOCH":32377,"BSTAR":0.00034218721,"MEAN_MOTION_DOT":5.737e-5,"MEAN_MOTION_DDOT":0},{"OBJECT_NAME":"XINGYUN-2 02","OBJECT_ID":"2020-028B","EPOCH":"2026-04-04T23:06:08.656416","MEAN_MOTION":15.11240765,"ECCENTRICITY":0.00116147,"INCLINATION":97.5097,"RA_OF_ASC_NODE":102.2511,"ARG_OF_PERICENTER":156.0983,"MEAN_ANOMALY":204.0788,"EPHEMERIS_TYPE":0,"CLASSIFICATION_TYPE":"U","NORAD_CAT_ID":45603,"ELEMENT_SET_NO":999,"REV_AT_EPOCH":32377,"BSTAR":0.00033021137,"MEAN_MOTION_DOT":5.497e-5,"MEAN_MOTION_DDOT":0},{"OBJECT_NAME":"HAIYANG-1D","OBJECT_ID":"2020-036A","EPOCH":"2026-04-04T22:16:41.382336","MEAN_MOTION":14.34217409,"ECCENTRICITY":0.00031509,"INCLINATION":98.4509,"RA_OF_ASC_NODE":38.2204,"ARG_OF_PERICENTER":32.5532,"MEAN_ANOMALY":327.5847,"EPHEMERIS_TYPE":0,"CLASSIFICATION_TYPE":"U","NORAD_CAT_ID":45721,"ELEMENT_SET_NO":999,"REV_AT_EPOCH":30447,"BSTAR":0.00013986243,"MEAN_MOTION_DOT":3.49e-6,"MEAN_MOTION_DDOT":0},{"OBJECT_NAME":"M2 PATHFINDER","OBJECT_ID":"2020-037E","EPOCH":"2026-04-04T11:43:41.998656","MEAN_MOTION":15.04348209,"ECCENTRICITY":0.00123761,"INCLINATION":97.8153,"RA_OF_ASC_NODE":284.8961,"ARG_OF_PERICENTER":46.5708,"MEAN_ANOMALY":313.6545,"EPHEMERIS_TYPE":0,"CLASSIFICATION_TYPE":"U","NORAD_CAT_ID":45727,"ELEMENT_SET_NO":999,"REV_AT_EPOCH":31441,"BSTAR":0.00032263794,"MEAN_MOTION_DOT":4.443e-5,"MEAN_MOTION_DDOT":0},{"OBJECT_NAME":"GAOFEN DUOMO (GFDM)","OBJECT_ID":"2020-042A","EPOCH":"2026-04-04T23:11:09.383712","MEAN_MOTION":14.7689308,"ECCENTRICITY":0.00100857,"INCLINATION":97.7814,"RA_OF_ASC_NODE":157.4939,"ARG_OF_PERICENTER":313.7526,"MEAN_ANOMALY":46.2849,"EPHEMERIS_TYPE":0,"CLASSIFICATION_TYPE":"U","NORAD_CAT_ID":45856,"ELEMENT_SET_NO":999,"REV_AT_EPOCH":31020,"BSTAR":0.00016871751,"MEAN_MOTION_DOT":1.138e-5,"MEAN_MOTION_DDOT":0},{"OBJECT_NAME":"ZIYUAN 3-03 (ZY 3-03)","OBJECT_ID":"2020-051A","EPOCH":"2026-04-04T21:58:08.993568","MEAN_MOTION":15.21399076,"ECCENTRICITY":0.00059803,"INCLINATION":97.2886,"RA_OF_ASC_NODE":164.9864,"ARG_OF_PERICENTER":184.9853,"MEAN_ANOMALY":175.1325,"EPHEMERIS_TYPE":0,"CLASSIFICATION_TYPE":"U","NORAD_CAT_ID":45939,"ELEMENT_SET_NO":999,"REV_AT_EPOCH":31620,"BSTAR":0.00030172307,"MEAN_MOTION_DOT":6.706e-5,"MEAN_MOTION_DDOT":0},{"OBJECT_NAME":"TYVAK-0172","OBJECT_ID":"2020-059C","EPOCH":"2026-04-04T05:45:29.826720","MEAN_MOTION":16.05980524,"ECCENTRICITY":0.00038517,"INCLINATION":97.7094,"RA_OF_ASC_NODE":339.8232,"ARG_OF_PERICENTER":173.7202,"MEAN_ANOMALY":186.4127,"EPHEMERIS_TYPE":0,"CLASSIFICATION_TYPE":"U","NORAD_CAT_ID":46267,"ELEMENT_SET_NO":999,"REV_AT_EPOCH":30716,"BSTAR":0.0041041707,"MEAN_MOTION_DOT":0.02622851,"MEAN_MOTION_DDOT":0.0077053543},{"OBJECT_NAME":"ION-MK01","OBJECT_ID":"2020-061C","EPOCH":"2026-04-04T18:45:27.395712","MEAN_MOTION":16.04171344,"ECCENTRICITY":0.00054709,"INCLINATION":97.1844,"RA_OF_ASC_NODE":175.3923,"ARG_OF_PERICENTER":233.6364,"MEAN_ANOMALY":126.4413,"EPHEMERIS_TYPE":0,"CLASSIFICATION_TYPE":"U","NORAD_CAT_ID":46274,"ELEMENT_SET_NO":999,"REV_AT_EPOCH":31180,"BSTAR":0.00090611676,"MEAN_MOTION_DOT":0.0058438,"MEAN_MOTION_DDOT":0.00016349418},{"OBJECT_NAME":"NEMO-HD","OBJECT_ID":"2020-061F","EPOCH":"2026-04-04T21:18:37.259136","MEAN_MOTION":15.43156362,"ECCENTRICITY":9.602e-5,"INCLINATION":97.1986,"RA_OF_ASC_NODE":157.6351,"ARG_OF_PERICENTER":72.7458,"MEAN_ANOMALY":287.3895,"EPHEMERIS_TYPE":0,"CLASSIFICATION_TYPE":"U","NORAD_CAT_ID":46277,"ELEMENT_SET_NO":999,"REV_AT_EPOCH":31067,"BSTAR":0.0003124968,"MEAN_MOTION_DOT":0.00013767,"MEAN_MOTION_DDOT":0},{"OBJECT_NAME":"3CAT-5A","OBJECT_ID":"2020-061W","EPOCH":"2026-04-04T22:08:14.233344","MEAN_MOTION":15.4389787,"ECCENTRICITY":0.00027402,"INCLINATION":97.247,"RA_OF_ASC_NODE":157.9983,"ARG_OF_PERICENTER":66.6803,"MEAN_ANOMALY":293.4733,"EPHEMERIS_TYPE":0,"CLASSIFICATION_TYPE":"U","NORAD_CAT_ID":46292,"ELEMENT_SET_NO":999,"REV_AT_EPOCH":30971,"BSTAR":0.00045112047,"MEAN_MOTION_DOT":0.00020433,"MEAN_MOTION_DDOT":0},{"OBJECT_NAME":"3CAT-5B","OBJECT_ID":"2020-061X","EPOCH":"2026-04-04T21:38:32.037216","MEAN_MOTION":15.45092318,"ECCENTRICITY":0.00028231,"INCLINATION":97.2472,"RA_OF_ASC_NODE":158.8242,"ARG_OF_PERICENTER":61.7012,"MEAN_ANOMALY":298.4522,"EPHEMERIS_TYPE":0,"CLASSIFICATION_TYPE":"U","NORAD_CAT_ID":46293,"ELEMENT_SET_NO":999,"REV_AT_EPOCH":30973,"BSTAR":0.00048287463,"MEAN_MOTION_DOT":0.00022788,"MEAN_MOTION_DDOT":0},{"OBJECT_NAME":"NAPA-1","OBJECT_ID":"2020-061BA","EPOCH":"2026-04-04T22:49:40.479744","MEAN_MOTION":15.59959393,"ECCENTRICITY":0.00011362,"INCLINATION":97.2529,"RA_OF_ASC_NODE":167.183,"ARG_OF_PERICENTER":151.4849,"MEAN_ANOMALY":208.6471,"EPHEMERIS_TYPE":0,"CLASSIFICATION_TYPE":"U","NORAD_CAT_ID":46320,"ELEMENT_SET_NO":999,"REV_AT_EPOCH":31029,"BSTAR":0.00074400081,"MEAN_MOTION_DOT":0.00060237,"MEAN_MOTION_DDOT":0},{"OBJECT_NAME":"JILIN-1 GAOFEN 3B","OBJECT_ID":"2020-065A","EPOCH":"2026-04-04T21:34:25.793760","MEAN_MOTION":15.93757107,"ECCENTRICITY":0.00027576,"INCLINATION":97.2271,"RA_OF_ASC_NODE":153.9589,"ARG_OF_PERICENTER":203.2531,"MEAN_ANOMALY":156.862,"EPHEMERIS_TYPE":0,"CLASSIFICATION_TYPE":"U","NORAD_CAT_ID":46454,"ELEMENT_SET_NO":999,"REV_AT_EPOCH":30887,"BSTAR":0.0011038191,"MEAN_MOTION_DOT":0.00397294,"MEAN_MOTION_DDOT":6.362958e-5},{"OBJECT_NAME":"JILIN-1 GAOFEN 3E","OBJECT_ID":"2020-065D","EPOCH":"2026-04-04T21:23:19.272192","MEAN_MOTION":15.56423694,"ECCENTRICITY":0.00140672,"INCLINATION":97.2361,"RA_OF_ASC_NODE":146.1872,"ARG_OF_PERICENTER":79.5295,"MEAN_ANOMALY":280.7545,"EPHEMERIS_TYPE":0,"CLASSIFICATION_TYPE":"U","NORAD_CAT_ID":46457,"ELEMENT_SET_NO":999,"REV_AT_EPOCH":30833,"BSTAR":0.00072192761,"MEAN_MOTION_DOT":0.00051362,"MEAN_MOTION_DDOT":0},{"OBJECT_NAME":"JILIN-1 GAOFEN 3F","OBJECT_ID":"2020-065E","EPOCH":"2026-04-04T21:02:43.910304","MEAN_MOTION":15.54609219,"ECCENTRICITY":0.00152918,"INCLINATION":97.2315,"RA_OF_ASC_NODE":143.7991,"ARG_OF_PERICENTER":68.0197,"MEAN_ANOMALY":292.2681,"EPHEMERIS_TYPE":0,"CLASSIFICATION_TYPE":"U","NORAD_CAT_ID":46458,"ELEMENT_SET_NO":999,"REV_AT_EPOCH":30829,"BSTAR":0.00069626034,"MEAN_MOTION_DOT":0.00046344,"MEAN_MOTION_DDOT":0},{"OBJECT_NAME":"JILIN-1 GAOFEN 3G","OBJECT_ID":"2020-065F","EPOCH":"2026-04-04T21:34:31.502208","MEAN_MOTION":15.61156908,"ECCENTRICITY":0.00096367,"INCLINATION":97.2391,"RA_OF_ASC_NODE":149.6539,"ARG_OF_PERICENTER":323.471,"MEAN_ANOMALY":36.5889,"EPHEMERIS_TYPE":0,"CLASSIFICATION_TYPE":"U","NORAD_CAT_ID":46459,"ELEMENT_SET_NO":999,"REV_AT_EPOCH":30847,"BSTAR":0.0007501983,"MEAN_MOTION_DOT":0.00063739,"MEAN_MOTION_DDOT":0}]
