XINGYUN-2 01            
1 45602U 20028A   26094.93044414  .00005737  00000+0  34219-3 0  9992
2 45602  97.4855  88.8089 0010844  95.1330 265.1138 15.11488818323779
XINGYUN-2 02            
1 45603U 20028B   26094.96260019  .00005497  00000+0  33021-3 0  9990
2 45603  97.5097 102.2511 0011614 156.0983 204.0788 15.11240765323777
HAIYANG-1D              
1 45721U 20036A   26094.92825674  .00000349  00000+0  13986-3 0  9999
2 45721  98.4509  38.2204 0003150  32.5532 327.5847 14.34217409304473
M2 PATHFINDER           
1 45727U 20037E   26094.48868054  .00004443  00000+0  32264-3 0  9995
2 45727  97.8153 284.8961 0012376  46.5708 313.6545 15.04348209314413
GAOFEN DUOMO (GFDM)     
1 45856U 20042A   26094.96608083  .00001138  00000+0  16872-3 0  9996
2 45856  97.7814 157.4939 0010085 313.7526  46.2849 14.76893080310200
ZIYUAN 3-03 (ZY 3-03)   
1 45939U 20051A   26094.91538187  .00006706  00000+0  30172-3 0  9995
2 45939  97.2886 164.9864 0005980 184.9853 175.1325 15.21399076316209
TYVAK-0172              
1 46267U 20059C   26094.23992855  .02622851  77054-2  41042-2 0  9999
2 46267  97.7094 339.8232 0003851 173.7202 186.4127 16.05980524307168
ION-MK01                
1 46274U 20061C   26094.78156708  .00584380  16349-3  90612-3 0  9990
2 46274  97.1844 175.3923 0005470 233.6364 126.4413 16.04171344311806
NEMO-HD                 
1 46277U 20061F   26094.88793124  .00013767  00000+0  31250-3 0  9995
2 46277  97.1986 157.6351 0000960  72.7458 287.3895 15.43156362310679
3CAT-5A                 
1 46292U 20061W   26094.92238696  .00020433  00000+0  45112-3 0  9995
2 46292  97.2470 157.9983 0002740  66.6803 293.4733 15.43897870309711
3CAT-5B                 
1 46293U 20061X   26094.90175969  .00022788  00000+0  48287-3 0  9998
2 46293  97.2472 158.8242 0002823  61.7012 298.4522 15.45092318309731
NAPA-1                  
1 46320U 20061BA  26094.95116296  .00060237  00000+0  74400-3 0  9999
2 46320  97.2529 167.1830 0001136 151.4849 208.6471 15.59959393310291
JILIN-1 GAOFEN 3B       
1 46454U 20065A   26094.89890965  .00397294  63630-4  11038-2 0  9992
2 46454  97.2271 153.9589 0002757 203.2531 156.8620 15.93757107308879
JILIN-1 GAOFEN 3E       
1 46457U 20065D   26094.89119528  .00051362  00000+0  72193-3 0  9994
2 46457  97.2361 146.1872 0014067  79.5295 280.7545 15.56423694308333
JILIN-1 GAOFEN 3F       
1 46458U 20065E   26094.87689711  .00046344  00000+0  69626-3 0  9990
2 46458  97.2315 143.7991 0015291  68.0197 292.2681 15.54609219308293
JILIN-1 GAOFEN 3G       
1 46459U 20065F   26094.89897572  .00063739  00000+0  75020-3 0  9991
2 46459  97.2391 149.6539 0009636 323.4710  36.5889 15.61156908308475
